{"type": "FeatureCollection", "features": [ {"type": "Feature", "properties": {"norad_id": 66911, "name": "1998-067XX", "group": "stations", "lat": 7.46215453678303, "lon": -35.99683355984389, "alt_km": 408.4812652708015, "timestamp": "2025-12-11T05:00:25.096280+00:00", "meta": {"OBJECT_NAME": "1998-067XX", "OBJECT_ID": "1998-067XX", "EPOCH": "2025-12-10T19:00:04.537152", "MEAN_MOTION": 15.51590937, "ECCENTRICITY": 0.00052987, "INCLINATION": 51.6296, "RA_OF_ASC_NODE": 152.0318, "ARG_OF_PERICENTER": 199.6569, "MEAN_ANOMALY": 160.4217, "EPHEMERIS_TYPE": 0, "CLASSIFICATION_TYPE": "U", "NORAD_CAT_ID": 66911, "ELEMENT_SET_NO": 999, "REV_AT_EPOCH": 130, "BSTAR": 0.0015968411, "MEAN_MOTION_DOT": 0.0009721, "MEAN_MOTION_DDOT": 0}, "tle": {"line1": "1 66911U 98067XX  25344.79171918  .00097210  00000+0  15968-2 0  9993", "line2": "2 66911  51.6296 152.0318 0005298 199.6569 160.4217 15.51590937  1303"}}, "geometry": {"type": "Point", "coordinates": [-35.99683355984389, 7.46215453678303]}}, {"type": "Feature", "properties": {"norad_id": 66912, "name": "1998-067XY", "group": "stations", "lat": 20.550136847852954, "lon": -47.28217209778674, "alt_km": 410.26209012897107, "timestamp": "2025-12-11T05:00:25.096290+00:00", "meta": {"OBJECT_NAME": "1998-067XY", "OBJECT_ID": "1998-067XY", "EPOCH": "2025-12-10T17:31:22.847520", "MEAN_MOTION": 15.50838333, "ECCENTRICITY": 0.00047912, "INCLINATION": 51.6309, "RA_OF_ASC_NODE": 152.3712, "ARG_OF_PERICENTER": 213.0974, "MEAN_ANOMALY": 146.9716, "EPHEMERIS_TYPE": 0, "CLASSIFICATION_TYPE": "U", "NORAD_CAT_ID": 66912, "ELEMENT_SET_NO": 999, "REV_AT_EPOCH": 129, "BSTAR": 0.0011490073, "MEAN_MOTION_DOT": 0.00067697, "MEAN_MOTION_DDOT": 0}, "tle": {"line1": "1 66912U 98067XY  25344.73012555  .00067697  00000+0  11490-2 0  9991", "line2": "2 66912  51.6309 152.3712 0004791 213.0974 146.9716 15.50838333  1293"}}, "geometry": {"type": "Point", "coordinates": [-47.28217209778674, 20.550136847852954]}}]}